STARLINK-31208          
1 59037U 24038Q   26067.91396105 -.00000926  00000+0 -24145-4 0  9994
2 59037  43.0025  31.8631 0001169 253.0933 106.9790 15.27576868114692
TRANSPORTER-12 OBJECT BT
1 62674U 25009BT  26068.71416991  .00013824  00000+0  51029-3 0  9998
2 62674  97.4094 151.5992 0003682 313.5044  46.5889 15.27872239121360
